TDRS 3                  
1 19548U 88091B   26094.09507948 -.00000301  00000+0  00000+0 0  9999
2 19548  12.6582 341.4910 0042227 356.0350 200.1119  1.00267787124643
HST                     
1 20580U 90037B   26093.66929401  .00012406  00000+0  40809-3 0  9997
2 20580  28.4724 229.5454 0002132  51.9469 308.1319 15.29899616777144
TDRS 5                  
1 21639U 91054B   26094.22745322  .00000084  00000+0  00000+0 0  9998
2 21639  14.0809 354.3263 0008672 279.6379 192.9130  1.00279221126971
TDRS 6                  
1 22314U 93003B   26094.14951601 -.00000297  00000+0  00000+0 0  9992
2 22314  14.1820 357.6092 0005107 182.8149  19.9445  1.00267572121666
TDRS 7                  
1 23613U 95035B   26093.69955567 -.00000240  00000+0  00000+0 0  9994
2 23613  13.4085 348.7020 0009313  55.3162 128.8446  1.00268526112502
ISS (ZARYA)             
1 25544U 98067A   26094.06925453  .00011847  00000+0  22464-3 0  9996
2 25544  51.6326 306.8840 0006251 269.7954  90.2318 15.48758130560264
TERRA                   
1 25994U 99068A   26094.26120273  .00000777  00000+0  16741-3 0  9997
2 25994  97.9539 146.7122 0003671  99.1126 325.8657 14.61044406398816
TDRS 8                  
1 26388U 00034A   26093.86599880 -.00000195  00000+0  00000+0 0  9991
2 26388  12.5682  31.9431 0005849 329.7150 227.1695  1.00270690 94434
TIMED                   
1 26998U 01055B   26094.20757407  .00003127  00000+0  28851-3 0  9997
2 26998  74.0713  23.9564 0002616 242.7441 117.3477 14.95117901319760
AQUA                    
1 27424U 02022A   26094.21168007  .00001687  00000+0  34606-3 0  9994
2 27424  98.4218  62.0500 0001395 115.5772 301.1356 14.62040526272462
SORCE                   
1 27651U 03004A   26094.01147896  .00006676  00000+0  49227-3 0  9996
2 27651  39.9919 324.7458 0018421 242.1037 117.7892 15.03306301260736
AURA                    
1 28376U 04026A   26094.23946472  .00001668  00000+0  34836-3 0  9993
2 28376  98.3354  50.1160 0001427  94.5482 265.5881 14.61212298155416
SWIFT                   
1 28485U 04047A   26094.11616318  .00078953  00000+0  85589-3 0  9999
2 28485  20.5545  33.3576 0002943 354.8348   5.2067 15.61795317175244
THEMIS A                
1 30580U 07004A   26093.58761424 -.00000062  00000+0  19760-3 0  9998
2 30580   7.2511 116.5880 8391194 184.3008 154.1077  0.87845562 40624
THEMIS D                
1 30797U 07004D   26093.48318208 -.00000114  00000+0  00000+0 0  9996
2 30797   6.9654  83.4365 8346083 220.1520 107.1436  0.87834882 40421
THEMIS E                
1 30798U 07004E   26093.88791589 -.00000112  00000+0  00000+0 0  9996
2 30798   4.9232 100.2542 8394075 204.4636 264.5971  0.88160265 65263
FGRST (GLAST)           
1 33053U 08029A   26094.09723656  .00006934  00000+0  26796-3 0  9996
2 33053  25.5840 358.7641 0008208 169.4642 190.6069 15.23541010984525
