[{"OBJECT_NAME":"TDRS 3","OBJECT_ID":"1988-091B","EPOCH":"2026-04-04T02:16:54.867072","MEAN_MOTION":1.00267787,"ECCENTRICITY":0.00422274,"INCLINATION":12.6582,"RA_OF_ASC_NODE":341.491,"ARG_OF_PERICENTER":356.035,"MEAN_ANOMALY":200.1119,"EPHEMERIS_TYPE":0,"CLASSIFICATION_TYPE":"U","NORAD_CAT_ID":19548,"ELEMENT_SET_NO":999,"REV_AT_EPOCH":12464,"BSTAR":0,"MEAN_MOTION_DOT":-3.01e-6,"MEAN_MOTION_DDOT":0},{"OBJECT_NAME":"HST","OBJECT_ID":"1990-037B","EPOCH":"2026-04-03T16:03:47.002464","MEAN_MOTION":15.29899616,"ECCENTRICITY":0.0002132,"INCLINATION":28.4724,"RA_OF_ASC_NODE":229.5454,"ARG_OF_PERICENTER":51.9469,"MEAN_ANOMALY":308.1319,"EPHEMERIS_TYPE":0,"CLASSIFICATION_TYPE":"U","NORAD_CAT_ID":20580,"ELEMENT_SET_NO":999,"REV_AT_EPOCH":77714,"BSTAR":0.00040809,"MEAN_MOTION_DOT":0.00012406,"MEAN_MOTION_DDOT":0},{"OBJECT_NAME":"TDRS 5","OBJECT_ID":"1991-054B","EPOCH":"2026-04-04T05:27:31.958208","MEAN_MOTION":1.00279221,"ECCENTRICITY":0.00086727,"INCLINATION":14.0809,"RA_OF_ASC_NODE":354.3263,"ARG_OF_PERICENTER":279.6379,"MEAN_ANOMALY":192.913,"EPHEMERIS_TYPE":0,"CLASSIFICATION_TYPE":"U","NORAD_CAT_ID":21639,"ELEMENT_SET_NO":999,"REV_AT_EPOCH":12697,"BSTAR":0,"MEAN_MOTION_DOT":8.4e-7,"MEAN_MOTION_DDOT":0},{"OBJECT_NAME":"TDRS 6","OBJECT_ID":"1993-003B","EPOCH":"2026-04-04T03:35:18.183264","MEAN_MOTION":1.00267572,"ECCENTRICITY":0.00051072,"INCLINATION":14.182,"RA_OF_ASC_NODE":357.6092,"ARG_OF_PERICENTER":182.8149,"MEAN_ANOMALY":19.9445,"EPHEMERIS_TYPE":0,"CLASSIFICATION_TYPE":"U","NORAD_CAT_ID":22314,"ELEMENT_SET_NO":999,"REV_AT_EPOCH":12166,"BSTAR":0,"MEAN_MOTION_DOT":-2.97e-6,"MEAN_MOTION_DDOT":0},{"OBJECT_NAME":"TDRS 7","OBJECT_ID":"1995-035B","EPOCH":"2026-04-03T16:47:21.609888","MEAN_MOTION":1.00268526,"ECCENTRICITY":0.00093138,"INCLINATION":13.4085,"RA_OF_ASC_NODE":348.702,"ARG_OF_PERICENTER":55.3162,"MEAN_ANOMALY":128.8446,"EPHEMERIS_TYPE":0,"CLASSIFICATION_TYPE":"U","NORAD_CAT_ID":23613,"ELEMENT_SET_NO":999,"REV_AT_EPOCH":11250,"BSTAR":0,"MEAN_MOTION_DOT":-2.4e-6,"MEAN_MOTION_DDOT":0},{"OBJECT_NAME":"ISS (ZARYA)","OBJECT_ID":"1998-067A","EPOCH":"2026-04-04T01:39:43.591392","MEAN_MOTION":15.4875813,"ECCENTRICITY":0.00062512,"INCLINATION":51.6326,"RA_OF_ASC_NODE":306.884,"ARG_OF_PERICENTER":269.7954,"MEAN_ANOMALY":90.2318,"EPHEMERIS_TYPE":0,"CLASSIFICATION_TYPE":"U","NORAD_CAT_ID":25544,"ELEMENT_SET_NO":999,"REV_AT_EPOCH":56026,"BSTAR":0.00022464475,"MEAN_MOTION_DOT":0.00011847,"MEAN_MOTION_DDOT":0},{"OBJECT_NAME":"TERRA","OBJECT_ID":"1999-068A","EPOCH":"2026-04-04T06:16:07.915872","MEAN_MOTION":14.61044406,"ECCENTRICITY":0.00036715,"INCLINATION":97.9539,"RA_OF_ASC_NODE":146.7122,"ARG_OF_PERICENTER":99.1126,"MEAN_ANOMALY":325.8657,"EPHEMERIS_TYPE":0,"CLASSIFICATION_TYPE":"U","NORAD_CAT_ID":25994,"ELEMENT_SET_NO":999,"REV_AT_EPOCH":39881,"BSTAR":0.00016740889,"MEAN_MOTION_DOT":7.77e-6,"MEAN_MOTION_DDOT":0},{"OBJECT_NAME":"TDRS 8","OBJECT_ID":"2000-034A","EPOCH":"2026-04-03T20:47:02.296320","MEAN_MOTION":1.0027069,"ECCENTRICITY":0.00058492,"INCLINATION":12.5682,"RA_OF_ASC_NODE":31.9431,"ARG_OF_PERICENTER":329.715,"MEAN_ANOMALY":227.1695,"EPHEMERIS_TYPE":0,"CLASSIFICATION_TYPE":"U","NORAD_CAT_ID":26388,"ELEMENT_SET_NO":999,"REV_AT_EPOCH":9443,"BSTAR":0,"MEAN_MOTION_DOT":-1.95e-6,"MEAN_MOTION_DDOT":0},{"OBJECT_NAME":"TIMED","OBJECT_ID":"2001-055B","EPOCH":"2026-04-04T04:58:54.399648","MEAN_MOTION":14.95117901,"ECCENTRICITY":0.00026161,"INCLINATION":74.0713,"RA_OF_ASC_NODE":23.9564,"ARG_OF_PERICENTER":242.7441,"MEAN_ANOMALY":117.3477,"EPHEMERIS_TYPE":0,"CLASSIFICATION_TYPE":"U","NORAD_CAT_ID":26998,"ELEMENT_SET_NO":999,"REV_AT_EPOCH":31976,"BSTAR":0.00028851077,"MEAN_MOTION_DOT":3.127e-5,"MEAN_MOTION_DDOT":0},{"OBJECT_NAME":"AQUA","OBJECT_ID":"2002-022A","EPOCH":"2026-04-04T05:04:49.158048","MEAN_MOTION":14.62040526,"ECCENTRICITY":0.00013956,"INCLINATION":98.4218,"RA_OF_ASC_NODE":62.05,"ARG_OF_PERICENTER":115.5772,"MEAN_ANOMALY":301.1356,"EPHEMERIS_TYPE":0,"CLASSIFICATION_TYPE":"U","NORAD_CAT_ID":27424,"ELEMENT_SET_NO":999,"REV_AT_EPOCH":27246,"BSTAR":0.00034606173,"MEAN_MOTION_DOT":1.687e-5,"MEAN_MOTION_DDOT":0},{"OBJECT_NAME":"SORCE","OBJECT_ID":"2003-004A","EPOCH":"2026-04-04T00:16:31.782144","MEAN_MOTION":15.03306301,"ECCENTRICITY":0.0018421,"INCLINATION":39.9919,"RA_OF_ASC_NODE":324.7458,"ARG_OF_PERICENTER":242.1037,"MEAN_ANOMALY":117.7892,"EPHEMERIS_TYPE":0,"CLASSIFICATION_TYPE":"U","NORAD_CAT_ID":27651,"ELEMENT_SET_NO":999,"REV_AT_EPOCH":26073,"BSTAR":0.00049227027,"MEAN_MOTION_DOT":6.676e-5,"MEAN_MOTION_DDOT":0},{"OBJECT_NAME":"AURA","OBJECT_ID":"2004-026A","EPOCH":"2026-04-04T05:44:49.751808","MEAN_MOTION":14.61212298,"ECCENTRICITY":0.00014276,"INCLINATION":98.3354,"RA_OF_ASC_NODE":50.116,"ARG_OF_PERICENTER":94.5482,"MEAN_ANOMALY":265.5881,"EPHEMERIS_TYPE":0,"CLASSIFICATION_TYPE":"U","NORAD_CAT_ID":28376,"ELEMENT_SET_NO":999,"REV_AT_EPOCH":15541,"BSTAR":0.00034835631,"MEAN_MOTION_DOT":1.668e-5,"MEAN_MOTION_DDOT":0},{"OBJECT_NAME":"SWIFT","OBJECT_ID":"2004-047A","EPOCH":"2026-04-04T02:47:16.498752","MEAN_MOTION":15.61795317,"ECCENTRICITY":0.00029437,"INCLINATION":20.5545,"RA_OF_ASC_NODE":33.3576,"ARG_OF_PERICENTER":354.8348,"MEAN_ANOMALY":5.2067,"EPHEMERIS_TYPE":0,"CLASSIFICATION_TYPE":"U","NORAD_CAT_ID":28485,"ELEMENT_SET_NO":999,"REV_AT_EPOCH":17524,"BSTAR":0.00085589155,"MEAN_MOTION_DOT":0.00078953,"MEAN_MOTION_DDOT":0},{"OBJECT_NAME":"THEMIS A","OBJECT_ID":"2007-004A","EPOCH":"2026-04-03T14:06:09.870336","MEAN_MOTION":0.87845562,"ECCENTRICITY":0.83911946,"INCLINATION":7.2511,"RA_OF_ASC_NODE":116.588,"ARG_OF_PERICENTER":184.3008,"MEAN_ANOMALY":154.1077,"EPHEMERIS_TYPE":0,"CLASSIFICATION_TYPE":"U","NORAD_CAT_ID":30580,"ELEMENT_SET_NO":999,"REV_AT_EPOCH":4062,"BSTAR":0.00019759964,"MEAN_MOTION_DOT":-6.2e-7,"MEAN_MOTION_DDOT":0},{"OBJECT_NAME":"THEMIS D","OBJECT_ID":"2007-004D","EPOCH":"2026-04-03T11:35:46.931712","MEAN_MOTION":0.87834882,"ECCENTRICITY":0.83460834,"INCLINATION":6.9654,"RA_OF_ASC_NODE":83.4365,"ARG_OF_PERICENTER":220.152,"MEAN_ANOMALY":107.1436,"EPHEMERIS_TYPE":0,"CLASSIFICATION_TYPE":"U","NORAD_CAT_ID":30797,"ELEMENT_SET_NO":999,"REV_AT_EPOCH":4042,"BSTAR":0,"MEAN_MOTION_DOT":-1.14e-6,"MEAN_MOTION_DDOT":0},{"OBJECT_NAME":"THEMIS E","OBJECT_ID":"2007-004E","EPOCH":"2026-04-03T21:18:35.932896","MEAN_MOTION":0.88160265,"ECCENTRICITY":0.83940758,"INCLINATION":4.9232,"RA_OF_ASC_NODE":100.2542,"ARG_OF_PERICENTER":204.4636,"MEAN_ANOMALY":264.5971,"EPHEMERIS_TYPE":0,"CLASSIFICATION_TYPE":"U","NORAD_CAT_ID":30798,"ELEMENT_SET_NO":999,"REV_AT_EPOCH":6526,"BSTAR":0,"MEAN_MOTION_DOT":-1.12e-6,"MEAN_MOTION_DDOT":0},{"OBJECT_NAME":"FGRST (GLAST)","OBJECT_ID":"2008-029A","EPOCH":"2026-04-04T02:20:01.238784","MEAN_MOTION":15.2354101,"ECCENTRICITY":0.00082085,"INCLINATION":25.584,"RA_OF_ASC_NODE":358.7641,"ARG_OF_PERICENTER":169.4642,"MEAN_ANOMALY":190.6069,"EPHEMERIS_TYPE":0,"CLASSIFICATION_TYPE":"U","NORAD_CAT_ID":33053,"ELEMENT_SET_NO":999,"REV_AT_EPOCH":98452,"BSTAR":0.00026795626,"MEAN_MOTION_DOT":6.934e-5,"MEAN_MOTION_DDOT":0}]
